ADDRESSBLO,ADDRESSBUI,ADDRESSTYP,HYPERLINK,LANDXADDRE,LANDYADDRE,NAME,PHOTOURL,ADDRESSPOS,DESCRIPTIO,ADDRESSSTR,ADDRESSFLO,INC_CRC,FMEL_UPD_D,ADDRESSUNI
,,,www.nparks.gov.sg/gardens-parks-and-nature/parks-and-nature-reserves/bukit-batok-nature-park,20449.4258,36630.19,Bukit Batok Nature Park,,,Along Bukit Batok East Avenue 2 and Bukit Batok East Avenue 6,,,687BC3283CECEB71,2021/01/22,
,,,www.nparks.gov.sg/gardens-parks-and-nature/parks-and-nature-reserves/zhenghua-nature-park,21882.5449,38885.22,Zhenghua Nature Park,,,"Bounded by Bt Timah Expressway (BKE), BKE Slip Road to Kranji Expressway (KJE) & Dairy Farm Road",,,E879D84E9F03FC10,2021/01/22,
,,,www.nparks.gov.sg/gardens-parks-and-nature/parks-and-nature-reserves/dairy-farm-nature-park,21388.3,38307.4766,Dairy Farm Nature Park,,,Along Dairy Farm Road,,,D2E81816E37D78B7,2021/01/22,
,,,www.nparks.gov.sg/gardens-parks-and-nature/parks-and-nature-reserves/jurong-lake-gardens,16630.9316,35360.1055,Jurong Lake Gardens,,,Along Yuan Ching Road and Boon Lay Way,,,DB390E82DD9B7A6F,2021/01/22,
,,,,,,,,,Address: 50 Yuan Ching Road Singapore 618661,,,,,
,,,,29376.9434,30516.8457,The Foothills Fort Canning Park,,,"Along River Valley Road, opposite Liang Court",,,99BE2CEDB1A1BFA8,2020/02/18,
,,,www.nparks.gov.sg/gardens-parks-and-nature/parks-and-nature-reserves/punggol-waterway-park,35956.55,43646.52,Punggol Waterway Park,,,Along Sentul Crescent Road (Cuts through the whole of Punggol Town),,,546A6DB1EFE4DB9C,2020/02/18,
,,,,26820.8613,43047.87,Brooks Park,,,Along Springside Ave,,,174F7682F6024278,2020/02/18,
,,,www.nparks.gov.sg/gardens-parks-and-nature/parks-and-nature-reserves/sengkang-riverside-park,33676.4375,42369.4258,Sengkang Riverside Park,,,Anchorvale Street abutting Sungei Punggol,,,B69DD8E34A62DB2C,2020/02/18,
,,,www.nparks.gov.sg/gardens-parks-and-nature/parks-and-nature-reserves/sembawang-park,28392.4336,49231.0938,Sembawang Park,,,At the end of Sembawang,,,0816A6B2F3313B3E,2020/02/18,
,,,,16928.916,47334.7539,Kranji Nature Trail,,,Off Kranji Way,,,69376E14E4629E66,2020/02/18,
,,,,27573.8281,48029.7,Pebble Garden,,,Off Sembawang Road,,,2758596DB4AEE800,2020/02/18,
,,,,31163.3164,37207.6367,Mei Hwan Crescent Playground,,,Bounded by Mei Hwan Drive and Mei Hwan Crescent,,,021312435E6361A0,2020/02/18,
,,,,33337.3164,38457.832,Parry Avenue Interim Park,,,Along Parry Ave and Glasgow Road,,,8238C86374B86AD2,2020/02/18,
,,,,19926.8457,37739.7148,Jalan Remaja Interim Park,,,Along Jln Remaja,,,6F7E275FDB39B5A5,2020/02/18,
,,,www.nparks.gov.sg/gardens-parks-and-nature/parks-and-nature-reserves/bukit-batok-town-park,19403.1211,37715.7344,Bukit Batok Town Park,,,Along Bukit Batok East Avenue 5,,,3E22C0281F3E04E2,2020/02/18,
,,,,12373.1123,35518.2578,Yunnan Park,,,Yunnan Crescent.Opp Jurong west sports hall.,,,F1A06128098C43A8,2020/02/18,
,,,www.nparks.gov.sg/gardens-parks-and-nature/parks-and-nature-reserves/one-north-park-rochester-west,22959.7285,32048.9141,one-north Park: Rochester West,,,"Along Vista Exchange Green, opposite The Star Vista",,,9906605784F7494E,2020/02/18,
,,,,15232.3789,35804.2773,Lakeside Grove Playground,,,Corporation Rise,,,342ED74CBE233662,2020/02/18,
,,,,19533.3945,39764.58,Phoenix Heights Playground,,,"Along Phoenix Rd, off Choa Chu Kang Rd",,,52C91CF6F5780AA7,2020/02/18,
,,,,21163.084,39468.7422,Almond Crescent Playground,,,Junction of Almond Crescent and Almond Street,,,266324D3F3D2CD6C,2020/02/18,
,,,,37578.28,32311.084,Jalan Buloh Perindu Playground,,,Bounded by Jln Buloh Perindu and Keris Drive,,,FF174AC2E0F7B7EE,2020/02/18,
,,,,42725.4922,38343.8477,Loyang View Playground,,,Loyang view,,,16E8EE8751EDE02C,2020/02/18,
,,,www.nparks.gov.sg/gardens-parks-and-nature/parks-and-nature-reserves/pasir-ris-park,41227.02,40073.72,Pasir Ris Park,,,Pasir Ris Park stretches from Pasir Ris Road to Jalan Loyang Besar and can be accessed through Elias Road and Pasir Ris Green,,,41ED0CEE6A43FA08,2020/02/18,
,,,,28473.3516,41135.793,Lentor Road Playground,,,Junction of Lentor Road and Lentor Loop,,,166C60CDAE11A5FE,2020/02/18,
,,,,30440.9043,41357.95,Sunrise Drive Playground 2,,,Located along Sunrise Drive,,,9BE4069974834C80,2020/02/18,
,,,,41678.19,35484.87,Jalan Angin Laut Playground,,,Jalan Angin Laut,,,73EB6C1271B1DC36,2020/02/18,
,,,,42488.43,36614.9922,Mera Terrace Playground,,,Seagull Ave,,,FD3CD16FF0D16269,2020/02/18,
,,,,31131.7813,40562.2578,Mimosa Walk Playground,,,Located along Mimosa Walk,,,B913153879777CA2,2020/02/18,
,,,,30831.08,40876.0664,Saraca Road Playground,,,Junction of Saraca Rd & Saraca Drive,,,59814E4B09F6FE7C,2020/02/18,
,,,,41004.15,34662.3828,Jalan Chempaka Kuning Playground,,,Jalan Chempaka Kuning,,,811AD50F8608532A,2020/02/18,
,,,www.nparks.gov.sg/gardens-parks-and-nature/parks-and-nature-reserves/changi-beach-park,46735.9531,40595.6328,Changi Beach Park,,,Along Nicoll Drive and Changi Coast Road,,,8C0F232B46BD112E,2020/02/18,
,,,www.nparks.gov.sg/gardens-parks-and-nature/parks-and-nature-reserves/fort-canning-park,29479.11,30463.7715,Fort Canning Park,,,"Fort Canning Park is bounded by Hill Street, Canning Rise, Clemenceau Avenue and River Valley Road",,,D3CA7E673B90B48F,2020/02/18,
,,,,34047.55,33780.4141,Geylang East Park,,,Besides Geylang East Swimming Complex along Aljunied Ave 1,,,79C5841226829C46,2020/02/18,
,,,,32707.2637,34897.418,Chempaka Avenue Playground,,,"Chempaka Avenue, Sennett Estate",,,740DB9D7A2814784,2020/02/18,
,,,,27830.7734,30351.2012,Ganges Avenue Open Space,,,Along Ganges Avenue,,,0FF74BF951ED6729,2020/02/18,
,,,,33385.0156,35110.1758,MacPherson Linear Park,,,"A linear park between Blk 20, Joo Seng Road and MacPherson Road in MacPherson Garden Estate. Also a transitional zone for commuters in industrial areas and for transport purposes.",,,2399BFAA54288753,2020/02/18,
,,,,22203.0371,32805.0273,Holland Grove View Playground,,,Along Holland Grove View,,,A98C186F51D9414E,2020/02/18,
,,,,28116.3438,37376.1328,Thomson Park,,,along Jalan Sembilang Road,,,00CFA46FDF491EDD,2020/02/18,
,,,,22202.1523,33109.9961,Mount Sinai Plain Playground,,,"mount sinai plain, mount sinai crescent",,,C08AFFA29839130C,2020/02/18,
,,,,28182.3418,30581.1973,Kim Seng Park,,,Entrance via River Valley Green,,,00FD96AE03E7E4EA,2020/02/18,
,,,www.nparks.gov.sg/gardens-parks-and-nature/parks-and-nature-reserves/toa-payoh-town-park,29630.33,34754.2969,Toa Payoh Town Park,,,Junction of Toa Payoh Lor 2 and Toa Payoh Lor 6,,,C45A8A635B5C3F8B,2020/02/18,
,,,www.nparks.gov.sg/gardens-parks-and-nature/parks-and-nature-reserves/istana-park,29170.8281,31291.5332,Istana Park,,,"Bounded by Orchard Road, Penang Road, Penang Lane and Buyong Road.",,,F83007523ABDA15B,2020/02/18,
,,,,31208.2285,31827.2832,North Bridge Garden,,,Along North bridge Road,,,61388BE2BB2E2435,2020/02/18,
,,,,22379.3535,34343.12,Holland Green Playground,,,End of Holland Green road,,,B12A777F24E41F01,2020/02/18,
,,,,25144.2383,34327.0469,Bougainvillea Park,,,Junction of Dunearn Road and Watten Drive,,,CA4851EDE75AEDFE,2020/02/18,
,,,,32510.3789,42323.74,Lorong Tanggam Park,,,Lorong Tanggam,,,B46F9A64955BD430,2020/02/18,
,,,,33432.03,38110.1836,Richards Avenue Park,,,Along Richards Ave,,,DDA293041C8C4401,2020/02/18,
,,,,40879.5273,34107.5078,Jalan Limau Manis Playground,,,Junction of Jalan Limau Nipis and Jalan Limau Manis,,,E2E2592EB83AD7F2,2020/02/18,
,,,,37023.77,34137.7656,Taman Kembangan Playground,,,Along Taman Selamat and Taman Kembangan,,,CC2570746FC5DF0A,2020/02/18,
,,,,28612.9043,41020.5742,Banyan Villas Playground,,,Junction of Lentor Road and Lentor Plains,,,DA9218CFEB990E1B,2020/02/18,
,,,,32659.3184,40162.7734,Luxus Hills Park,,,Junction of Ang Mo Kio Ave 5 and Yio Chu Kang Road,,,2CE34B8946F4115F,2020/02/18,
,,,,40637.7852,34583.082,Tanah Merah Playground,,,Tanah Merah Kechil Ave,,,DA05434EA9991889,2020/02/18,
,,,,28784.1875,36785.8867,Marymount Terrace Playground,,,End of Marymount Terrace,,,BF55993565B41D6E,2020/02/18,
,,,,32898.79,35180.4922,Butterfly Avenue Playground,,,"Butterfly Avenue, Sennett Estate",,,4FF401FD8E317547,2020/02/18,
,,,,36326.05,31914.5215,Marine Parade Road Park,,,A linear park along Marine Parade Road between Still Road South (Road) and East Coast Road. It flanked itself at terminal roads of private houses with one courtyard in front of Grand Mercue Roxy Hotel.,,,4DBD588CA9153C17,2020/02/18,
,,,,29407.4043,36916.92,Clover Way Playground,,,Junction of Clover Way and Binchang Rise,,,1A59DE3A345F4205,2020/02/18,
,,,,31302.8281,31643.29,Kampong Glam Park,,,Along beach road,,,5F26F987DF1B33E6,2020/02/18,
,,,,33292.4922,37270.81,Jalan Geneng Interim Park,,,Along Jalan Geneng,,,1852078C6668522B,2020/02/18,
,,,,32458.5449,40838.3828,Jalan Selaseh Playground,,,"Bounded by Jalan Selaseh, Seletar Hills Drive & Jalan Keruing",,,AA6469B3C9CF05CF,2020/02/18,
,,,,38126.0273,33097.957,Elite Terrace Park,,,Bounded by Elite Park Avenue and Elite Terrace,,,055A39B259377CFB,2020/02/18,
,,,,31565.6,39136.0664,Tavistock Avenue Park,,,Junction of Ang Mo Kio Ave 3 and Tavistock Ave,,,CF26A22674D2BC36,2020/02/18,
,,,,31798.8789,37740.3945,Colchester Grove Open Space,,,Along Colchester Grove,,,DB02F9F1D0A2C0AB,2020/02/18,
,,,,31730.62,40559.5,Nim Crescent Open Space,,,Located along Nim Crescent,,,AE9C00E81015C0B6,2020/02/18,
,,,,28415.9277,40803.4023,Lentor Green Playground,,,Near Lentor Loop and within Lentor Green,,,EF3BCEF9A11F2BE9,2020/02/18,
,,,,40828.14,33494.92,Kew Crescent Playground,,,Along Kew Crescent,,,B3743948D125A5E7,2020/02/18,
,,,,31192.59,36742.3359,Chiltern Drive Interim Park,,,Located along Chiltern Drive (Road) within Braddel Height Estate and beside St. Gabriel Secondary School,,,799AC8121D7A57AE,2020/02/18,
,,,,29574.0332,31870.2832,Mount Emily Park,,,Along Mt Emily Rd and Upper Wilkie Rd,,,043225DC16008504,2020/02/18,
,,,www.nparks.gov.sg/gardens-parks-and-nature/parks-and-nature-reserves/dhoby-ghaut-green,29398.1973,31189.6953,Dhoby Ghaut Green,,,"Adjacent to Dhoby Ghaut MRT Station, opposite the Park Mall Shopping Centre",,,9D21F9CFC0C0E487,2020/02/18,
,,,,38070.4,32588.9766,East Coast Terrace Park,,,"2 parts of the Park, bounded by East Coast Avenue and Marine Parade Road",,,6D0045A80FDBB63B,2020/02/18,
,,,,29138.42,36755.0352,Binchang Rise Playground,,,At the end of Binchang Rise,,,ACAB3D6A3F7E02FE,2020/02/18,
,,,,29257.9434,37019.09,Clover Crescent Playground,,,Along Clover Crescent and Clover Ave,,,B1F341352F20F9F9,2020/02/18,
,,,,24901.7344,34058.793,Duchess Park,,,Along Duchess Avenue,,,A1D39EA678EDFFFA,2020/02/18,
,,,,27650.0449,38119.5273,The Inglewood Playground,,,Along the Inglewood,,,AF2C2058DC5E9B57,2020/02/18,
,,,,20360.0234,39179.61,Cashew Road Playground,,,Junction of Cashew Road and Upper Bukit Timah Road,,,9B2F0980DFE85F18,2020/02/18,
,,,,13279.7637,37097.9961,Westwood Park Playground,,,Westwood Crescent/Ave.,,,3A7423776B643EA3,2020/02/18,
,,,,15072.7891,35774.543,Lakeside Grove Fitness Corner,,,"Corporation Rise, along Lakeside PCN.",,,49F83FD6C22D5865,2020/02/18,
,,,www.nparks.gov.sg/gardens-parks-and-nature/parks-and-nature-reserves/one-north-park-mediapolis,23493.9238,30813.2578,one-north Park: Mediapolis,,,"Media Circle, next to MediaCorp campus",,,0A0B96D99AE2AD78,2020/02/18,
,,,www.nparks.gov.sg/gardens-parks-and-nature/parks-and-nature-reserves/bukit-timah-nature-reserve,21402.1816,37255.4648,Bukit Timah Nature Reserve,,,End of Hindhede Drive,,,3BDE3205F96F1B62,2020/02/18,
,,,,18582.3281,33313.7734,Pandan Reservoir Fitness Corner,,,Juntion of West Coast Road & Pandan Gardens,,,46F986B3C0659F1F,2020/02/18,
,,,,20646.9258,35214.2734,Eng Kong Place Fitness Corner,,,Located along Eng Kong Place,,,9B2E40862E5853BF,2020/02/18,
,,,,20952.0781,35070.4063,Savoy Park Playground,,,Located at the end of Eng Kong Drive,,,E439DF16FD095FF9,2020/02/18,
,,,,28024.0859,38241.7148,Fulton Avenue Playground,,,Along Fulton Ave,,,1C301C15FB8F9285,2020/02/18,
,,,,20481.7715,35163.5234,Greenridge Crescent Playground,,,Located along Greenridge Crescent,,,3DC1E90FB5DDF7DD,2020/02/18,
,,,,31316.0176,36085.8555,Carmichael Road Playground,,,Carmichael Road,,,53DA086B747F82E2,2020/02/18,
,,,www.nparks.gov.sg/gardens-parks-and-nature/parks-and-nature-reserves/esplanade-park,30256.8164,30202.709,Esplanade Park,,,"Along Connaught Drive, opposite Padang and City Hall",,,796C29E57BAEE0E3,2020/02/18,
,,,,23062.58,29073.7734,Chwee Chian Playground,,,"Chwee Chian Road, Springwood Estate",,,4FD06B73056FE731,2020/02/18,
,,,,29100.1523,32743.9336,Hooper Road Playground,,,Along Hooper Road and Makepeace Road/Jalan Aruan,,,3EB910FEC676D119,2020/02/18,
,,,,29047.1738,34119.375,Novena Rise Park,,,Along Novena Rise,,,3239DA75EB85361C,2020/02/18,
,,,,23911.4746,33949.2266,Namly Park,,,Located along Namly Place,,,D4098D99D8A898F9,2020/02/18,
,,,,20594.543,36474.72,Jalan Tekukor Playground,,,"Jalan Selanting, along Jalan Jurong Kechil",,,1F38F9A714071F75,2020/02/18,
,,,,21140.61,35341.09,Cheng Soon Garden Playground,,,Located along Kismis Road and Toh Yi Drive,,,A67AD95D8F7A42BC,2020/02/18,
,,,,31792.44,36582.01,Jalan Riang Playground,,,Located along Jalan Riang (Road) is a central green space surrounded by shophouses and residential houses in Braddel Height Estate.,,,6E418CC1927067D6,2020/02/18,
,,,www.nparks.gov.sg/gardens-parks-and-nature/parks-and-nature-reserves/bedok-reservoir-park,38404.5977,35695.9258,Bedok Reservoir Park,,,Along Bedok Reservoir Road,,,3F999E73F889E1C3,2020/02/18,
,,,,31809.8965,37700.2539,Chuan Walk Playground,,,Along Chuan Walk,,,FE592D76E41AC86E,2020/02/18,
,,,,31905.5547,41081.1953,Dedap Place Playground,,,Dedap Place,,,BC4B404B91317126,2020/02/18,
,,,,36846.0938,32514.7383,Telok Kurau Lorong N Park,,,Lorong N Telok Kurau,,,586903718DAAF613,2020/02/18,
,,,,28556.7051,40924.26,Lentor Grove Playground,,,Near Lentor Road and Lentor Green,,,C38D382A967F2E94,2020/02/18,
,,,www.nparks.gov.sg/gardens-parks-and-nature/parks-and-nature-reserves/bedok-town-park,37743.57,35169.7227,Bedok Town Park,,,"Bedok North Avenue 3. Bounded by Bedok North Road, Bedok North Avenue 3 and the Pan Island Expressway",,,D24B1FE235BEE9F4,2020/02/18,
,,,,40025.74,33505.832,Lucky Gardens Playground,,,Lucky Gardens,,,1C026F0B6C8B6B1F,2020/02/18,
,,,,39451.043,33254.36,Sennett Avenue Playground,,,Bounded by Sennett Ave and Sennett Place,,,0FCE10E5E6E256C6,2020/02/18,
,,,,30396.1348,32304.1855,Rowell Road Open Space,,,Along Rowell Rd,,,3A9F65E90F23A4FD,2020/02/18,
,,,,30243.0176,29970.834,Waterboat House Garden,,,Along Fullerton Road,,,AFF1460341FB3F9A,2020/02/18,
,,,www.nparks.gov.sg/gardens-parks-and-nature/parks-and-nature-reserves/holland-village-park,23796.0469,32669.9883,Holland Village Park,,,Junction of Holland Road and Holland Avenue,,,10230E7C94A5172E,2020/02/18,
,,,,28477.707,31548.3965,Orchard Fountain Corner,,,Junction of Grange Road and Orchard Road,,,BFF845B255FD0BDE,2020/02/18,
,,,,22534.24,32894.81,Grove Lane Playground,,,"Grove Lane, Grove Crescent and Grove Avenue",,,4C9A125C82C49F0D,2020/02/18,
,,,,34237.875,32882.332,Lorong 40 Geylang Playground,,,Along Lor 40 Geylang,,,8E53310885968D73,2020/02/18,
,,,,23410.0273,28685.8711,Pasir Panjang Park,,,"Off Pasir Panjang Road, beside Pasir Panjang Food Centre",,,0D115E6FDFCD277D,2020/02/18,
,,,,27983.91,33709.69,Goldhill Avenue Playground,,,Junction of Goldhill Place and Goldhil Avenue,,,E4B5AF291E6150FE,2020/02/18,
,,,,28821.3672,33624.33,Gentle Drive Playground,,,At the end of Gentle Drive,,,6433E1F4C5E4ACB5,2020/02/18,
,,,,27092.1563,37816.1133,Jupiter Road Playground,,,Along Jupiter road playground,,,B8558938C839E971,2020/02/18,
,,,www.nparks.gov.sg/gardens-parks-and-nature/parks-and-nature-reserves/jacob-ballas-childrens-garden,26286.09,33661.32,Jacob Ballas Children's Garden,,,In the Bukit Timah Core of the Singapore Botanic Gardens,,,70AD9F934D3DC44D,2020/02/18,
,,,,,,,,,"Address: 481, Bukit Timah Road, Singapore 259769",,,,,
,,,,29172.2676,33159.03,Thomson Road Playground,,,Along Licoln Road,,,F22245ECFDC85E78,2020/02/18,
,,,,34775.2266,31214.7617,Meyer Road Playground,,,Junction of Meyer Road & Crescent Rd,,,FE035938BE2DF0F3,2020/02/18,
,,,,33903.82,31060.6016,Katong Park,,,Junction of Meyer Road & Fort Road,,,872C841CC5199FAA,2020/02/18,
,,,www.nparks.gov.sg/gardens-parks-and-nature/parks-and-nature-reserves/one-north-park-biopolis,23219.9941,31845.9941,one-north Park: Biopolis,,,"North Buona Vista Road, opposite Ministry of Education",,,9E56510CDF41EAFD,2020/02/18,
,,,,34109.36,31746.834,Arthur Park,,,Along Arthur Road,,,FE5148DF1325C119,2020/02/18,
,,,,35503.3828,32093.8516,Haig Walk,,,Adjacent to Seraya Lane and Mugliston Road,,,50CB7B0AD7A8537E,2020/02/18,
,,,,33021.1,34947.293,Oasis@Mulberry Park,,,"Junction of Upper Aljunied Road & Mulberry Avenue, Sennett Estate",,,AC7AA1819698A319,2020/02/18,
,,,www.nparks.gov.sg/gardens-parks-and-nature/parks-and-nature-reserves/pearls-hill-city-park,28692.5039,29424.6953,Pearl's Hill City Park,,,Along Chin Swee Road and Pearl's Hill Road,,,4263D837CC5538E9,2020/02/18,
,,,,23199.58,29053.7578,Jambol Place Park,,,"Jambol Place, Springwood Estate",,,3420DA28EF5B5655,2020/02/18,
,,,,33191.0469,34594.8945,Aljunied Park,,,Along Aljunied Road within Happy Garden Estate,,,AEDED76F676EB90A,2020/02/18,
,,,,29487.7988,28959.9531,Telok Ayer Park,,,"Bounded by Maxwell Road, Cecil Street and Telok Ayer Street",,,611FE49DC6D16BDF,2020/02/18,
,,,,27303.26,33914.7,Malcolm Park,,,Along Malcolm Rd and Whiteley Rd,,,A8E6BEBC85BB54D1,2020/02/18,
,,,,25461.5273,34507.06,Shelford Road Playground,,,Junction of Watten Rise and Shelford Road,,,1C58B562BCE93BB3,2020/02/18,
,,,,22093.53,32933.7422,Jalan Kebaya Playground,,,junction of Jln Kebaya and Holland Grove Ave,,,B3CDBBD33E9E5638,2020/02/18,
,,,,35123.0078,31392.2441,Tanjong Katong Road South Playground,,,Along Tg Katong Road South,,,346A2DD6DADE8CD8,2020/02/18,
,,,,21291.65,36223.14,Hoover Park,,,Along Lorong Pisang Batu,,,E472D9BDFF470AB7,2020/02/18,
,,,,20382.2852,35389.543,Golden Rise Playground,,,Junction of Lorong Kismis and Toh Tuck Rise,,,179D861B34F7D0F9,2020/02/18,
,,,,29056.6348,33840.17,Novena Park,,,Along Jalan Novena,,,58741C149776580F,2020/02/18,
,,,,24591.6113,28317.1973,Berlayer Creek,,,"Behind Labrador Park MRT Station, 701 Telok Blangah Road",,,8467604070BF4B31,2020/02/18,
,,,,24902.6387,35299.0039,Greenwood Crescent Playground,,,Along Greenwood crescent,,,663619BA22257536,2020/02/18,
,,,www.nparks.gov.sg/gardens-parks-and-nature/parks-and-nature-reserves/youth-olympic-park,31040.5313,30100.2129,Youth Olympic Park,,,Raffles Avenue. Junction of Raffles Avenue and Bayfront Bridge,,,FFEB8DC08F15C9DE,2020/02/18,
,,,,29290.582,30608.8438,River Valley Road / Clemenceau Avenue Open Space,,,Bounded by River Valley Road and Clemenceau Avenue,,,5EA9119C5C096F48,2020/02/18,
,,,,22411.8262,33168.1523,Henry Park,,,Along holland grove road,,,ED401EE20873C3AB,2020/02/18,
,,,,31618.752,34005.28,Beng Wan Road Playground,,,Along Beng Wan Road,,,F571533F1A656670,2020/02/18,
,,,www.nparks.gov.sg/gardens-parks-and-nature/parks-and-nature-reserves/war-memorial-park,30392.7,30579.5488,War Memorial Park,,,"Bounded by Nicoll Highway, Stamford Road, Beach Road and Bras Basah Road",,,CA1E86CCF0B4B07B,2020/02/18,
,,,,23321.6367,33853.8125,Sixth Avenue Playground,,,Along Sixth Avenue,,,DCD74FFF6BA84174,2020/02/18,
,,,,22375.4258,32753.2754,Holland Grove View Fitness Corner,,,Along Holland Grove View,,,719020429F7BECFD,2020/02/18,
,,,www.nparks.gov.sg/gardens-parks-and-nature/parks-and-nature-reserves/ang-mo-kio-town-garden-east,29888.2676,39176.3,Ang Mo Kio Town Garden East,,,"Junction of Ang Mo Kio Ave 3 and 8, behind Ang Mo Kio MRT Station",,,92EF3F1DFACC5D11,2020/02/18,
,,,,31490.1465,30330.4355,Marina Promenade,,,Along Republic Boulevard and Republic Avenue,,,00E1DB2943D1749C,2020/02/18,
,,,,27456.96,38228.4453,Island Gardens Walk Playground,,,Along Island Garden Walk,,,D3DEEB0BBA176DD7,2020/02/18,
,,,,20506.3848,35853.0664,Highgate Walk Playground,,,Along Highgate walk,,,A888D0B2ADED9910,2020/02/18,
,,,,27856.373,37304.92,Soo Chow Walk Playground,,,along Soo chow walk,,,462A8A66480A45CC,2020/02/18,
,,,,29046.2715,37274.2969,Pemimpin Place Playground,,,Along Pemimpin Place,,,F6C50CD9F00C7DFC,2020/02/18,
,,,,21316.0781,33927.7148,Clementi Crescent Playground,,,Within Clementi Crescent Estate,,,ADC0488E38A1F9B4,2020/02/18,
,,,,24482.6328,35320.9023,Orchid Village Playground,,,Along Liden Dr,,,179F0FF2BDAE0A76,2020/02/18,
,,,,35610.0859,32966.18,Joo Chiat Terrace Interim Park,,,Along Joo Chiat Terrace,,,257CCFABE97D31F2,2020/02/18,
,,,,28737.4453,37347.9375,Jalan Pintau Playground,,,along Jalan Pintau,,,EE93BB5C3B7D382C,2020/02/18,
,,,www.nparks.gov.sg/gardens-parks-and-nature/parks-and-nature-reserves/chestnut-nature-park,22159.4824,39220.65,Chestnut Nature Park,,,"Located along Chestnut Avenue and is abutting Central Catchment Nature Reserve, stretches along BKE, from Gali Batu Flyover to Dairy Farm Flyover.",,,AFBB1AAB4CEF1004,2020/02/18,
,,,,,,,,,"PUB Waterworks is situated at the end of Chestnut Avenue, demarking the access road across the middle of Ch",,,,,
,,,,22964.9512,33837.4531,Greenleaf View Park Playground,,,At the end of Greenleaf View,,,E3D8EBD783D3B367,2020/02/18,
,,,,26258.0254,34187.27,University Road Park,,,At the end of University Walk,,,382980E5C992C4D6,2020/02/18,
,,,,24965.9414,33486.0156,King's Drive Playground,,,junction of king's road and king's drive,,,D2871F4E89CF3AEF,2020/02/18,
,,,,29729.7344,30899.3262,Stamford Green,,,Bounded by Canning Rise and Stamford Road; Next to National Museum of Singapore,,,C73F1EE0BEE9D1B4,2020/02/18,
,,,,30763.7246,32642.77,Somme Road Playground,,,Along Petain Rd and Kitchener Link,,,84145C82116A130E,2020/02/18,
,,,,32421.7,34659.3438,Siang Kuang Avenue Interim Park,,,"Siang Kuang Avenue, Sennett Estate",,,C0F24BDD65199A53,2020/02/18,
,,,,22629.332,35465.4531,Hua Guan Crescent Playground,,,Located along Hua Guan Crescent,,,74CC369AA90F4995,2020/02/18,
,,,,28206.6,36918.9063,Taman Permata Park,,,Along Upper Thomson Road,,,AEFDE6CC600E00FB,2020/02/18,
,,,,25292.1484,34878.48,Watten Heights Playground,,,Along Watten Estate Road,,,C753D8230DE8A523,2020/02/18,
,,,,41833.07,33929.2,Eastwood Park Playground,,,Between Eastwood Way and Bedok PCN,,,F4FD697FF3D7BEB4,2020/02/18,
,,,,38073.918,33718.168,Bangsawan Park,,,Jalan Bangsawan,,,E8D1D421BBAB98DB,2020/02/18,
,,,,28079.7285,37626.6953,Thomson Park Estate Interim Park,,,,,,A59816CD9F1E86FD,2020/02/18,
,,,,34574.8633,32981.9648,Guillemard Road Open Space,,,Besides City Plaza towards Geylang Road,,,069CCF717AF5088A,2020/02/18,
,,,,22165.8223,35950.332,Mayfair Park,,,Located along Jalan Gaharu,,,24E912B43EB95878,2020/02/18,
,,,www.nparks.gov.sg/gardens-parks-and-nature/parks-and-nature-reserves/ang-mo-kio-town-garden-west,29064.8477,39558.2227,Ang Mo Kio Town Garden West,,,"Opposite Ang Mo Kio Town Library, along Ang Mo Kio Avenue 6",,,D5F6AA05F4EBB8F2,2020/02/18,
,,,,28463.8926,40294.207,Yio Chu Kang Gardens Playground,,,Turn right after Yio Chu Kang estate entrance,,,4BD7AB1ED2B7588F,2020/02/18,
,,,,40502.98,40079.1,Sungei Api Api Park,,,"Entrance via Pasir Ris Drive 3, Riverina View and Elias Road",,,4894713B31B66C67,2020/02/18,
,,,,32962.0078,40821.14,Mugliston Park Playground,,,Junction of Gerald Drive & Mugliston Park,,,03F3E458EBEEFCEC,2020/02/18,
,,,,33592.3125,36787.4922,Paya Lebar Crescent Open Space,,,Central open space at round about along Paya lebar cresent (road),,,533A17097CE72D63,2020/02/18,
,,,,41029.44,34010.6523,Limau Villas Playground,,,End of Limau Terrace from Jalan Langgar Bedok,,,D2D5F65DB241AD6D,2020/02/18,
,,,,28314.6563,41109.4766,Lentor Vale Playground,,,Junction of Lentor Vale and Lentor Way,,,00D14D4E70684188,2020/02/18,
,,,,38142.7,33595.7656,Opera Estate Football Field,,,Swan Lake Avenue,,,AD2BA4AF1306E38A,2020/02/18,
,,,,27896.8828,39226.05,Shangri-La Playground,,,Junction of Ang Mo Kio Ave 2 and Jalan Lanjut,,,FF16ED3C3767BD2C,2020/02/18,
,,,,45135.69,41460.7773,Changi Point Ferry Terminal,,,Near Lor Bekukong,,,AA9DDE6381971B22,2020/02/18,
,,,www.nparks.gov.sg/gardens-parks-and-nature/parks-and-nature-reserves/sun-plaza-park,40371.2031,37926.31,Sun Plaza Park,,,"Along Tampines Avenue 7, Tampines Avenue 9",,,5BBA8A8EB630BA01,2020/02/18,
,,,,37385.9531,32814.4141,Greenfield Drive Playground,,,Greenfield Drive,,,8B896BD1155428FB,2020/02/18,
,,,,40813.1055,33764.6133,Kew Avenue Playground,,,Junction of Kew Avenue and Kew Drive,,,E3FD62E109D01A9C,2020/02/18,
,,,,39994.0938,39355.5859,Elias Terrace Playground,,,Junction of Elias Terrace and Elias Green,,,8B06ED4574E90FC9,2020/02/18,
,,,,30676.6113,41137.35,Sunrise Drive Playground 1,,,Located along Sunrise Drive,,,66086C14E8DACE2D,2020/02/18,
,,,,28695.5957,39413.7,Mayflower Crescent Playground,,,At the junction of Mayflower Crescent and Mayflower Avenue,,,B01AE2FF8B58F5CA,2020/02/18,
,,,,29594.3027,29323.4141,Telok Ayer Green,,,"Bounded by Amoy Street, Boon Tat Street and Telok Ayer Street",,,07CFE6567539200A,2020/02/18,
,,,www.nparks.gov.sg/gardens-parks-and-nature/parks-and-nature-reserves/national-orchid-garden,25838.2285,32773.9063,National Orchid Garden,,,In the Central Core of the Singapore Botanic Gardens.,,,119021D2C0A30D47,2020/02/18,
,,,,,,,,,"Address: 1 Cluny Road, Singapore 259569",,,,,
,,,,28881.3613,31383.64,Penang Road Open Space,,,Along Penang Road and Oxley Road ▀,,,8536B482FE51D6CD,2020/02/18,
,,,,30917.4219,32180.6777,Kitchener Green Playground,,,Along Kitchener Road,,,D56EAEF187A152BD,2020/02/18,
,,,,29608.8711,31259.1367,Handy Road Open Space,,,"Bounded by Handy Road, Orchard Road and Zubir Said Drive; In front of The Cathay ▀",,,B4B92BB1A0D125DA,2020/02/18,
,,,,33670.9023,35846.06,Bunga Rampai Park,,,"Located along Jalan Bunga Rampai (Road) is a transitional zone among Bartley MRT, Bartley Secondary School and Jalan Bunga Rampai Estate",,,2F1D45EED0C983BA,2020/02/18,
,,,,40706.1328,34196.625,Bedok Terrace Playground,,,Between Bedok Rise and Bedok Terrace,,,7FFC95EC84EF2F0F,2020/02/18,
,,,,35836.5352,41506.1133,St. Anne's Wood Playground,,,Inside the private housing estate at St Anne's Wood,,,43A081292A7AE024,2020/02/18,
,,,,33857.832,37476.27,Aroozoo Avenue Playground,,,Bounded by Aroozoo Ave and Jalan Mastuli,,,ACBC9E152D19BD06,2020/02/18,
,,,,45346.4766,41344.2461,Changi Point Promenade,,,Near Lor Bekukong,,,5FEA22BCC48153DA,2020/02/18,
,,,,34348.5273,38888.0625,Realty Park,,,Along Hougang Ave 4 ,,,A7BB1BF496807A8B,2020/02/18,
,,,,33751.35,36467.27,Tai Keng Gardens Playground,,,"A garden with hill top flanked by Jalan Lokam (Road), Tai keng Lane and Tai keng Garden (Road)",,,5849B290D7DCE062,2020/02/18,
,,,,38528.9922,33516.0547,Aida Park,,,Between Bedok South Road and Aida Street,,,B1967F93364DFF89,2020/02/18,
,,,,45223.9453,41396.76,Changi Point Waterfront Park,,,Near Lor Bekukong,,,554EFA4C1308DF81,2020/02/18,
,,,,31608.5332,40836.9336,Neram Crescent Playground,,,Neram Crescent,,,F61B266734F722E2,2020/02/18,
,,,,31019.38,40666.75,Mimosa Terrace Playground,,,Located along Mimosa Rd,,,78C61210DF1CC17B,2020/02/18,
,,,www.nparks.gov.sg/gardens-parks-and-nature/parks-and-nature-reserves/tampines-eco-green,40839.48,38440.6133,Tampines Eco Green,,,Tampines Avenue 9 and Tampines Avenue 12,,,4B8A3DF67A51E9DA,2020/02/18,
,,,,33556.49,36225.77,Thrift Drive Open Space,,,"Green open space along Upper Paya Lebar (Road) and along Thrift Drive (Road), facing Jalan Gotong Royong (Road)",,,0CD00CC02BF36ADD,2020/02/18,
,,,,28134.8164,39334.5273,Ellington Square Playground,,,Near Ang Mo Kio Ave 2/ Ang Mo Kio Street 11 and Ellington Square,,,F5CF4377C8B5A14D,2020/02/18,
,,,,22079.2949,48257.7734,Woodlands Waterfront Park,,,Admiralty Road West,,,01E36C27ADF1A692,2020/02/18,
,,,,30990.6621,41291.72,Tamarind Road Playground,,,Tamarind Road,,,09819F1DC27928BB,2020/02/18,
,,,,21980.32,46469.1133,Woodlands Town Park East,,,Along Woodlands street 13,,,7ED2BECE2F8269E3,2020/02/18,
,,,,31013.2949,37604.82,Tai Hwan Terrace Playground,,,Bounded by Tai Hwan Grove and Tai Hwan Terrace,,,51DC303FD7651D0F,2020/02/18,
,,,www.nparks.gov.sg/gardens-parks-and-nature/parks-and-nature-reserves/upper-peirce-reservoir-park,25555.502,39611.75,Upper Peirce Reservoir Park,,,Along Old Upper Thomson Road,,,EC9FDBFD4393F73A,2020/02/18,
,,,,31939.73,40381.2578,Seletar Terrace Playground,,,Located along Seletar Terrace,,,6C996D80208497AB,2020/02/18,
,,,,30590.9219,40986.6367,Sunrise Place Playground,,,Located along Sunrise Place,,,622FBEF14C816531,2020/02/18,
,,,,37010.8945,33072.043,Telok Kurau Park,,,"A green space along Bedok Reservoir PCN. Entrance along Joo Chiat Place, Joo Chiat Walk, Joo Chiat Ave and Lorong J Telok Kurau (Road)",,,6FCD6CEF6885DDAA,2020/02/18,
,,,,37163.5352,34579.293,Jalan Senang Playground,,,Along Jalan Senang,,,927944CDCCC7E47B,2020/02/18,
,,,,43451.0938,38322.77,Changi Heights Playground,,,Jalan Terang Bulan,,,09DE4312CEE2D693,2020/02/18,
,,,,41428.6367,34074.3633,Pesari Walk Playground,,,Along Taman Bedok,,,171B1A8D0BCD056B,2020/02/18,
,,,,37061.043,34398.832,Interim Park At Lengkong Enam,,,Along Jalan Selamat and Lengkong Tujuh,,,BA00DDAB0F3E954D,2020/02/18,
,,,,39808.5,33450.3125,Sennett Avenue Open Space,,,Sennett Ave,,,AABAA7518ACA5AC5,2020/02/18,
,,,,20860.1641,35455.875,Eng Kong Garden Playground,,,Located along Lorong Kismis and Eng Kong Terrace,,,ADB5ACEDD0C508B1,2020/02/18,
,,,www.nparks.gov.sg/gardens-parks-and-nature/parks-and-nature-reserves/one-north-park-rochester-east,23085.7988,31990.1,one-north Park: Rochester East,,,"Along Vista Exchange Green, in front of Rochester Mall",,,6737176BF81736D6,2020/02/18,
,,,,19685.3613,38078.19,Jalan Dermawan Playground,,,Along Jln Dermawan,,,026A96ECFD0DE9D4,2020/02/18,
,,,,19435.25,33093.59,West Coast Green Playground,,,"West Coast Green, West Coast Gardens Estate",,,E7E7429FF42D5F9F,2020/02/18,
,,,,18947.6738,39366.082,Pavilion Park Playground,,,"Pavilion Circle, off Bukit Batok Road",,,3C808BDDC9DDA21F,2020/02/18,
,,,,20372.2422,34435.39,Sunset Way Park,,,"Along Sunset Way, located just outside Clementi Park Condo",,,D2E19B02FA1C3F3B,2020/02/18,
,,,,20823.1934,38851.6328,Chestnut Drive Playground,,,Junction of Chestnut Drive and Chestnut Terrace,,,A29D55628024A73B,2020/02/18,
,,,,19947.22,38053.97,Lorong Kemunchup Playground,,,Along Lorong Kemunchup,,,C767FF100CA63B91,2020/02/18,
,,,,19941.1445,35776.9,Burgundy Crescent Playground,,,"Burgundy Crescent, within Burgundy Hill Residences",,,39625DFC79777B4B,2020/02/18,
,,,,27908.791,39776.2734,Thomson Walk Playground,,,Thomson Walk Road,,,D257368CC200724B,2020/02/18,
,,,,30692.1934,40994.27,Sunrise Close Playground,,,Located at the junction of Sunrise Ave & Sunrise Place,,,05830DBD3D09DA63,2020/02/18,
,,,,30537.6133,41132.043,Sunrise Terrace Open Space,,,Located along Sunrise Terrace,,,122B1D3AFC079CA8,2020/02/18,
,,,,27292.834,46782.4141,Jalan Kemuning Park,,,Off Sembawang Road/Jalan Kemuning Road,,,CE4D5D08BBC01CCD,2020/02/18,
,,,,33199.418,39000.64,Park Villas Terrace Playground,,,Along Hougang Ave 2 and Park Villas Terrace,,,A9434EB7E9677E3D,2020/02/18,
,,,,27614.88,39497.5156,Gelenggang Park,,,Upper Thomson Road behind ESSO station. Junction of Jalan Kuras/Jalan Gelenggang,,,B59FA0E862861781,2020/02/18,
,,,,28138.1543,40210.168,Serenade Walk Playground,,,Serenade walk road,,,C2CF14521E3B39D4,2020/02/18,
,,,,30105.2617,41336.7148,Cactus Road Playground,,,Located in Cactus Rd,,,BEF6EFD284E92D21,2020/02/18,
,,,,31400.24,37966.625,Chartwell Drive Park,,,Along Chartwell Drive,,,48DD42ABD462F168,2020/02/18,
,,,,31300.27,40690.1953,Mimosa Road Playground,,,Located at Mimosa Crescent next to Mimosa Park Condo,,,7123569049B86143,2020/02/18,
,,,,33652.3945,37516.293,Surin Avenue Neighbourhood Park,,,Bounded by Surin Ave and Aroozoo Ave,,,88D9CB89C5ED2C1F,2020/02/18,
,,,,27922.59,40074.2734,Thomson Green Playground,,,"Thomson Green road, behind shop houses",,,B301234EA6A5BBF3,2020/02/18,
,,,,43049.3633,37957.74,Mariam Walk Playground,,,Mariam Walk,,,F66150300D02C36F,2020/02/18,
,,,,42788.71,38223.6563,Mariam Way Playground,,,Mariam Way,,,24CB69EEF1E5A3E7,2020/02/18,
,,,,28563.6035,41173.2773,Lentor Walk Playground,,,Junction of Lentor Loop and Lentor Walk,,,F0619964ED0B58C6,2020/02/18,
,,,,26783.1289,42526.7148,Springleaf Avenue Playground,,,Springleaf avenue,,,CB24BE507115244E,2020/02/18,
,,,,26344.8828,42433.9453,Thong Soon Green Playground,,,Beside petrol kiosk,,,2733F67AEA96B1A9,2020/02/18,
,,,www.nparks.gov.sg/gardens-parks-and-nature/parks-and-nature-reserves/upper-seletar-reservoir-park,24929.0957,42402.668,Upper Seletar Reservoir Park,,,"Along Mandai Road Track 7, off Mandai Road",,,750596296F1D4DC4,2020/02/18,
,,,,21327,39032.52,Chestnut Close Playground,,,Located at end of Chestnut Close,,,66CC564969878943,2020/02/18,
,,,,18884.75,41274.94,Villa Verde Park,,,Junction of Choa Chu Kang North 5 and Stagmont Ring Rd,,,825841DB4B9E80ED,2020/02/18,
,,,,13011.35,37370.58,Westville Playground,,,"Westwood Crescent, along Jalan Bahar",,,0875BCBCF3532C19,2020/02/18,
,,,,19667.8438,32949.17,West Coast Place Playground,,,"West Coast Place, West Coast Gardens Estate",,,D7D8AEC6567902E5,2020/02/18,
,,,,19580.8418,33861.418,Faber Height Open Space,,,Along Faber Walk,,,8C43839BF220936F,2020/02/18,
,,,www.nparks.gov.sg/gardens-parks-and-nature/parks-and-nature-reserves/jurong-central-park,14039.5664,35576.9961,Jurong Central Park,,,Junction off Jalan Boon Lay & Boon Lay Way,,,8A8EE7F0A86B2251,2020/02/18,
,,,,42136.54,36470.23,Jalan Pelatok Playground,,,Jalan Pelatok,,,5C59D5B40A6ADC9A,2020/02/18,
,,,,41901.76,35690,Sunbird Circle Playground,,,Sunbird Circle,,,F29F4C63B7397725,2020/02/18,
,,,,37822.29,33765.1523,Interim Park at Terang Bulan Avenue,,,Between New Upper Changi Road and Terang Bulan Ave,,,B6D8116DB09F97B6,2020/02/18,
,,,,33398.23,36545.88,Jalan Kelichap Playground,,,Located along Jalan Kelichap (Road) is a central green space surrounded by residential houses in Tai keng gardens Estate,,,E320990175BAA58F,2020/02/18,
,,,,30607.8359,41066.14,Sunrise Way Playground,,,Located along Sunrise Way,,,5AD78C5AAD9DF46D,2020/02/18,
,,,,32200.668,42349.2734,Dew Garden,,,Jalan Tari Payong,,,B1087E9F050C5D64,2020/02/18,
,,,,40583.168,34025.1172,Jalan Limau Kasturi Playground,,,Junction of Jalan Limau Kasturi and Jalan Limau Nipis,,,9257829B06B65D33,2020/02/18,
,,,,40304.34,35024.48,Jalan Pari Dedap Playground,,,Jalan Pari Dedap,,,B253351D85E65E0A,2020/02/18,
,,,,38918.97,33128.28,Tanah Puteh Park,,,Jalan Tanah Puteh,,,C32F84850A50B2E9,2020/02/18,
,,,www.nparks.gov.sg/gardens-parks-and-nature/parks-and-nature-reserves/yishun-neighbourhood-park,28195.6855,46590.4531,Yishun Neighbourhood Park,,,"Bound by Yishun Ave 2, Ave 7 and St 22. Yishun St 20 leads straight to the park.",,,9D531CC4CC25FAEE,2020/02/18,
,,,,28901.5117,29285.4824,Duxton Plain Park,,,"Entrance via New Bridge Road, Neil Road, Kreta Ayer Road and Yan Kit Road",,,26B7D581B2162D25,2020/02/18,
,,,,29424.582,29209.8516,Ann Siang Hill Park,,,"Entrance via Ann Siang Road, Ann Siang Hill and Amoy Street",,,A3861CAF6D92A3C6,2020/02/18,
,,,,28407.9023,48792.8867,Janggus Garden,,,Off Sembawang Road/Janggus Road,,,C5BEF6020AC6C9BF,2020/02/18,
,,,www.nparks.gov.sg/gardens-parks-and-nature/parks-and-nature-reserves/kranji-marshes,15377.1445,44667.3125,Kranji Marshes,,,Kranji Gate:,,,F776651BCCCA71C7,2020/02/18,
,,,,,,,,,"11 Neo Tiew Lane 2,",,,,,
,,,,,,,,,Singapore 718814,,,,,
,,,,28195.1328,40987.8438,Florissa Park Playground,,,Near Lentor Loop and within Florissa Park,,,C635184863DD7F95,2020/02/18,
,,,,26585.377,43057.5859,Springside Park,,,Can be seen from the main road,,,848D9F18FD8CAA80,2020/02/18,
,,,,29555.4121,38168.4063,Bishan-Ang Mo Kio Park,,,Along Bishan Road and Ang Mo Kio Ave 1,,,ED248125970394ED,2020/09/30,
,,,www.nparks.gov.sg/gardens-parks-and-nature/parks-and-nature-reserves/central-catchment-nature-reserve,24901.2441,39920.92,Central Catchment Nature Reserve,,,"601 Island Club Road (Located close to Singapore Island Country Club, via Venus Drive)",,,3621026BA0298F2B,2020/09/30,
,,,,34008.09,31546.8,Wilkinson Interim Park,,,Along Wilkinson Road,,,AA5EC52A19C4E25A,2020/02/18,
,,,,33562.582,32007.0059,Mount Batten Rd/Old Airport Rd Open Space,,,Junction of Mt Batten Rd & Old Airport Rd,,,78E6B093FF09F721,2020/02/18,
,,,www.nparks.gov.sg/gardens-parks-and-nature/parks-and-nature-reserves/hong-lim-park,29475.6621,29895.5273,Hong Lim Park - Speakers' Corner,,,"The park is bounded by North Canal Road, South Bridge Road, Upper Pickering Street and New Bridge Rd",,,AC8CA17A21868178,2020/02/18,
,,,www.nparks.gov.sg/gardens-parks-and-nature/parks-and-nature-reserves/raffles-place-park,30005.0781,29630.7031,Raffles Place Park,,,Bounded by Battery Road and Collyer Quay. It can also be accessed from D'Almeida Street.,,,06833C82218C53F5,2020/02/18,
,,,,19615.11,33558.7734,Faber Hill Playground,,,Along Faber Green,,,76825A42FC8AC938,2020/02/18,
,,,www.nparks.gov.sg/gardens-parks-and-nature/parks-and-nature-reserves/hindhede-nature-park,21621.8633,36924.29,Hindhede Nature Park,,,Along Hindhede Drive,,,A915DD4C9B00E016,2020/02/18,
,,,,20833.7773,39263.5234,Cashew Link Playground,,,Located along Cashew Link and Cashew Crescent,,,76672EABB60FDEBA,2020/02/18,
,,,,20370.07,32340.6582,Taman Mas Merah Playground,,,"Taman Mas Merah, West Coast Peak Estate",,,6C744303E59213AC,2020/02/18,
,,,www.nparks.gov.sg/gardens-parks-and-nature/parks-and-nature-reserves/one-north-park-fusionopolis-north,23249.6484,31483.7539,one-north Park: Fusionopolis North,,,Along Central Exchange Green,,,FECD599E4B43D4AB,2020/02/18,
,,,,20553.3086,34335.0938,Sunset Way Playground,,,Along Sunset Way,,,D02DFEA28D368014,2020/02/18,
,,,,19954.55,37494.57,Hillview Crescent Playground,,,"Hillview Cescent, along Hillview Avenue",,,C03B764FE9E80701,2020/02/18,
,,,,27541.6543,40439.168,Teacher's Estate Playground,,,"Teacher's estate , opposite shop houses",,,77203A0769DABF8D,2020/02/18,
,,,,45029.7422,41523.58,Changi East Boardwalk,,,Along Changi Village Road near Civil Service Club,,,75B94ABAD360C035,2020/02/18,
,,,,40565.69,34058.4,Jalan Limau Kasturi Open Space,,,Junction of Jalan Limau Kasturi and Jalan Limau Nipis,,,E576647428D29775,2020/02/18,
,,,,28586.752,41331.84,Countryside Playground,,,Junction of Lentor Loop and Countryside Link and Countryside Road,,,6946A424EC57BD58,2020/02/18,
,,,,28435.7344,41306.41,Fudu Walk Playground,,,Junction of Lentor Road and Fudu Walk,,,086DCD09121859AE,2020/02/18,
,,,,31346.3379,41087.71,Begonia Road Playground,,,Begonia Road near provision shop,,,0ED8A5B4660D3DC6,2020/02/18,
,,,,31637.9512,38060.5078,Chuan Green Playground,,,Along Chuan Drive,,,772D072B4A23E587,2020/02/18,
,,,,31355.8457,37272.1055,Mei Hwan Drive Playground,,,Bounded by Lorong Chuan and Ang Mo Kio Ave 1,,,19AFA344C16505F9,2020/02/18,
,,,,31097.3965,40340.4453,Lilac Drive Playground,,,Located at the end of Lilac Drive,,,E6F53FED0B894E21,2020/02/18,
,,,,28106.66,41335.49,Lentor Street Playground,,,Near Lentor Crescent and Lentor Street,,,0E6DB6A242F9EEF2,2020/02/18,
,,,,33374.3672,38774.52,Poh Huat Road Playground,,,Bounded by Poh Huat Road and Poh Huat Crescent,,,2C20594469A955C4,2020/02/18,
,,,,41563.207,35869.1133,Harvey Crescent Playground,,,Harvey Crescent,,,20880D0B4E75011A,2020/02/18,
,,,,41180.7,33663.2344,Kew Drive Playground,,,At the roundabout of Kew Drive,,,3120B9A286F21587,2020/02/18,
,,,,27527.52,39418.4531,Leban Park,,,Behind Sembawang Hills Food Centre. Upper Thomson Road behind ESSO.,,,EB7459375A3D10F7,2020/02/18,
,,,,31744.6465,40134.5625,Stratton Walk Playground,,,Located at the end of Stratton Walk,,,8FC92F17CF75A88A,2020/02/18,
,,,www.nparks.gov.sg/gardens-parks-and-nature/parks-and-nature-reserves/coney-island-park,37994.87,43526.7266,Coney Island Park,,,Beside Punggol Promenade Nature Walk,,,7CAC664DFF94240C,2020/02/18,
,,,,44210.12,41314.54,Turnhouse Park,,,Natheravon Road,,,AB31CCDD36F93C1C,2020/02/18,
,,,,42193.6328,36479.08,Jalan Pelatok Open Space,,,Jalan Pelatok,,,BC5EA394BD8CE9F8,2020/02/18,
,,,www.nparks.gov.sg/gardens-parks-and-nature/parks-and-nature-reserves/sembawang-hot-spring-park,26812.403,46208.642,Sembawang Hot Spring Park,,,Along Gambas Avenue,,,DB357C6047CC0425,2020/09/30,
,,,,27198.793,45476.19,Platina Road Playground,,,Platina estate,,,076102BC56072481,2020/02/18,
,,,,23891.3281,33808.4648,Coronation Park Playground,,,Junction of Jalan Hagi Alias and Coronation Road West,,,408D16EA6460027C,2020/02/18,
,,,,41328.457,34404.8672,Bedok Ria Crescent Playground,,,Between Bedok Ria Crescent and Bedok PCN,,,804F060931653541,2020/02/18,
,,,,41249.87,39300.3555,Pasir Ris Town Park,,,"Along Pasir Ris Central, Opposite Pasir Ris MRT Station",,,682A4F3AC560CD9B,2020/02/18,
,,,,34289.2656,38814.9,Realty Park Playground,,,Along Lor 1 Realty Park,,,828FD782D8A57226,2020/02/18,
,,,,42129.76,36280.9258,Meragi Road Playground,,,Meragi Road,,,FBEBA0B887452AE6,2020/02/18,
,,,,41071.5156,33855.96,Limau Garden Playground,,,Junction of Limau Garden and Salam Walk,,,B8289869042E85E1,2020/02/18,
,,,www.nparks.gov.sg/gardens-parks-and-nature/parks-and-nature-reserves/mount-faber-park,26319.87,28639.62,Mount Faber Park,,,Junction of Kampong Bahru Road and Telok Blangah Road,,,D96EF1306309FB7E,2020/02/18,
,,,,30074.2988,29915.9863,Empress Place,,,Entrance via Empress Place,,,584CB62EF1ED852B,2020/02/18,
,,,www.nparks.gov.sg/gardens-parks-and-nature/parks-and-nature-reserves/kallang-riverside-park,31746.0938,32012.8359,Kallang Riverside Park,,,"Along Kallang Road, Stadium Road and Crawford Street",,,8BD1CD702AE3F9F7,2020/02/18,
,,,,31600.2246,38054.4258,Garden View Playground,,,Along Conway Grove,,,B702F418F69DC068,2020/02/18,
,,,,32917.31,38674.1055,Parry Road Playground,,,"Bounded by Parry Road, Parry Terrace and Chuan Hoe Avenue",,,D4893F4D6A7A6DC4,2020/02/18,
,,,,33733.9922,36352.3828,Tai Keng Place Playground,,,A small playground at the end of Tai keng Place (Road),,,6F29197BDF70B653,2020/02/18,
,,,,37555.41,33918.8438,Waringin Park Playground,,,Along Waringin Park,,,EF909169B81E9DEB,2020/02/18,
,,,,27940.62,39292.95,St. Nicholas View Playground,,,Junction of Ang Mo Kio Ave 2 and Ang Mo Kio Street 11,,,5788E506D0FDAB82,2020/02/18,
,,,,40644.66,35116.0547,Jalan Pari Burong Playground,,,Jalan Pari Burong,,,A058CCE975E44EBF,2020/02/18,
,,,www.nparks.gov.sg/gardens-parks-and-nature/parks-and-nature-reserves/hortpark,24456.7539,29010.0234,HortPark,,,"33 Hyderabad Road (off Alexandra Road), Singapore 119578",,,A5846571A555DFD6,2020/02/18,
,,,www.nparks.gov.sg/gardens-parks-and-nature/parks-and-nature-reserves/telok-blangah-hill-park,25465.4844,29033.7148,Telok Blangah Hill Park,,,Telok Blangah Green off Henderson Road,,,5DFA1F5042BC1C4D,2020/02/18,
,,,,28165.4922,21869.93,Sisters’ Islands Marine Park,,,Sisters’ Islands ,,,D5016B28ECC28A3D,2020/02/18,
,,,,23214.502,29642.79,Kent Ridge Park,,,Vigilante Drive off South Buona Vista Road,,,034656BDAFA8BF68,2020/02/18,
,,,,37135.1055,42677.4766,Punggol Waterway,,,Along Sentul Crescent Road,,,3B67C7294C35D913,2020/02/18,
,,,www.nparks.gov.sg/gardens-parks-and-nature/parks-and-nature-reserves/lower-peirce-reservoir-park,27218.4727,39009.77,Lower Peirce Reservoir Park,,,Along Old Upper Thomson Road,,,8B9EBA8A4FBE27B0,2020/02/18,
,,,www.nparks.gov.sg/gardens-parks-and-nature/parks-and-nature-reserves/yishun-park,29033.998,45125.78,Yishun Park,,,"Bounded by Yishun Ave 4, Yishun Central, Yishun Ave 11 and Yishun Ring Road",,,1370FC84BCD77908,2020/02/18,
,,,,27113.3262,45447,Goodlink Park Playground,,,Turn right after Goodlink estate entrance,,,C6898AE8670B0E68,2020/02/18,
,,,,19733.7422,44256.3477,Jalan Rasok Park,,,Along Jln Rasok,,,DBC341F53A0B6293,2020/02/18,
,,,www.nparks.gov.sg/gardens-parks-and-nature/parks-and-nature-reserves/yishun-pond-park,28686.4531,45481.94,Yishun Pond Park,,,"Along Yishun Central, in front of Khoo Teck Puat Hospital",,,EECA2F4988DD7F22,2020/02/18,
,,,,26776.2285,42213.5664,Springleaf Garden Playground,,,Straight from springleaf estate entrance road.,,,54B23DCCBBA064D4,2020/02/18,
,,,www.nparks.gov.sg/gardens-parks-and-nature/parks-and-nature-reserves/lower-seletar-reservoir-park,27872.291,43533.2773,Lower Seletar Reservoir Park,,,Bounded by Yishun Ave 1 and Lentor Avenue,,,CB5DC6630AF255AF,2020/02/18,
,,,www.nparks.gov.sg/gardens-parks-and-nature/parks-and-nature-reserves/punggol-park,35270.1328,39880.5352,Punggol Park,,,Junction of Hougang Avenue 8 and 10,,,A997071F044A0F3D,2020/02/18,
,,,,28262.1211,48647.15,Kandis Garden,,,Off Sembawang Road/Kandis Road,,,954DC81886757C48,2020/02/18,
,,,www.nparks.gov.sg/gardens-parks-and-nature/parks-and-nature-reserves/kranji-reservoir-park,17621.416,46721.5859,Kranji Reservoir Park,,,Along Kranji Way,,,8B757636FB879EBD,2020/02/18,
,,,www.nparks.gov.sg/gardens-parks-and-nature/parks-and-nature-reserves/springleaf-nature-park,26236.12,42558.5625,Springleaf Nature Park,,,"Nee Soon Road, Upper Thomson Road",,,B56D2B1467E9E6C0,2020/02/18,
,,,www.nparks.gov.sg/gardens-parks-and-nature/parks-and-nature-reserves/labrador-nature-reserve,24640.57,27586.96,Labrador Nature Reserve,,,Along Labrador Villa Road,,,75F7C87973E9CAA3,2021/01/22,
,,,,42701.0625,43391.7148,Pulau Ubin and Chek Jawa,,,Pulau Ubin,,,E415D9764E0546B3,2021/01/22,
,,,www.nparks.gov.sg/gardens-parks-and-nature/parks-and-nature-reserves/woodlands-town-garden,20946.2656,46591.77,Woodlands Town Garden,,,,,,96486E19D6DD29C7,2021/01/22,
,,,www.nparks.gov.sg/gardens-parks-and-nature/parks-and-nature-reserves/ad-test-the-park,22295.6016,47314.61,Admiralty Park,,,,,,4E353F2A56DE9182,2021/01/22,
,,,www.nparks.gov.sg/gardens-parks-and-nature/parks-and-nature-reserves/windsor-nature-park,27290.8262,38010.7031,Windsor Nature Park,,,"30 Venus Drive, Singapore 573858 (Located close to Singapore Island Country Club)",,,61D4606F7E6E5289,2021/01/22,
,,,www.nparks.gov.sg/gardens-parks-and-nature/parks-and-nature-reserves/sungei-buloh-wetland-reserve,17110.8965,46876.9766,Sungei Buloh Wetland Reserve,,,Visitor Centre:,,,085E18CF2019E327,2021/01/22,
,,,,,,,,,"60 Kranji Way, #01-00",,,,,
,,,,,,,,,Singapore 739453,,,,,
,,,,,,,,,Wetland Centre:,,,,,
,,,,,,,,,301 Neo Tiew Crescent,,,,,
,,,,,,,,,Singapore 718925,,,,,
,,,,,,,,,,,,,,
,,,,,,,,,Parking lots are available near both entrances.,,,,,
,,,,43865.02,41329.9961,Changi West Boardwalkhttps://authoring.nparks.gov.sg/sitecore/shell/applications/content-editor?ic=People%2F16x16%2Fcubes_blue.png&he=Content%20Editor&cl=0#,,,Along Andover and Cranwell Road,,,A7845D364BD3A7C9,2021/01/22,
,,,www.nparks.gov.sg/gardens-parks-and-nature/parks-and-nature-reserves/east-coast-park,37714.1875,31723.4941,East Coast Park,,,Along East Coast Parkway and East Coast Park Service Road,,,E4658AB78CF161DC,2021/01/22,
,,,,30388.01,32452.0234,Lembu Road Open Space,,,,,,DB0C82B6FB9A025B,2021/01/22,
,,,,35304.38,32644.8418,Carpmael Road Open Space,,,Along Carpmael Road and Ceylon Road,,,53A51089F2E7E4C6,2021/01/22,
,,,www.nparks.gov.sg/gardens-parks-and-nature/parks-and-nature-reserves/singapore-botanic-gardens,26100.54,32594.55,Singapore Botanic Gardens,,,Located in central Singapore and just five minutes away (by bus) from Orchard Road.,,,B9A3B072715051A9,2021/01/22,
,,,,,,,,,"Address: 1 Cluny Road, Singapore 259569",,,,,
,,,www.nparks.gov.sg/gardens-parks-and-nature/parks-and-nature-reserves/macritchie-reservoir-park,28030.207,35964.3125,MacRitchie Reservoir Park,,,,,,D89B4580CC95D2DC,2021/01/22,
,,,,27628.11,29586.5781,Kim Pong Road Open Space,,,,,,FBF2CCADD9A6BAC1,2021/01/22,
,,,,29361.4648,32574.0918,Kampong Java Park,,,,,,968F7D0612EDC4C8,2021/01/22,
,,,,19730.9824,37857.1523,Chu Yen Playground,,,Junction of Jln Remaja and Chu Yen Street,,,CB9D8F2AC6FB3D32,2020/02/18,
,,,,34622.01,39064.9141,Jalan Naung Playground,,,Along Jalan Naung,,,75456CBD2D8FA780,2020/02/18,
,,,,20827.3066,34463.0234,Sunset Heights Open Space,,,Along Sunset Heights,,,889F376DE6E359DC,2020/02/18,
,,,,20241.6367,32236.39,Jalan Mas Kuning Playground,,,"Jalan Mas Kuning, West Coast Peak Estate",,,52CC5AD24CCC049E,2020/02/18,
,,,,20246.1777,39294.06,Hazel Park Open Space,,,Located along Upper Bukit Timah Road,,,A50FBDC42FFC5543,2020/02/18,
,,,www.nparks.gov.sg/gardens-parks-and-nature/parks-and-nature-reserves/choa-chu-kang-park,18553.3359,41229.6172,Choa Chu Kang Park,,,"Along Choa Chu Kang Drive, next to KJE",,,84998193765E95EA,2020/02/18,
,,,,20790.5566,37721.0039,Fuyong Interim Park,,,Located along Jalan Asas,,,27950593DED69D81,2020/02/18,
,,,,20897.2148,39361.4922,Cashew Crescent Fitness Corner Playground,,,Located along Cashew Road and Cashew Crescent,,,6B361A762DD3F663,2020/02/18,
,,,www.nparks.gov.sg/gardens-parks-and-nature/parks-and-nature-reserves/one-north-park-fusionopolis-south,23259.3086,31330.1641,one-north Park: Fusionopolis South,,,Along Central Exchange Green,,,EA18912EEAD8317A,2020/02/18,
,,,,20174.1543,30947.6738,West Coast Park,,,Parallel to West Coast Highway,,,857734FB60B3361E,2020/02/18,
,,,,20065.9121,32367.6465,Jalan Mas Puteh Playground,,,"Jalan Mas Puteh, West Coast Peak Estate",,,E251D11ADDEF4483,2020/02/18,
,,,www.nparks.gov.sg/gardens-parks-and-nature/parks-and-nature-reserves/clementi-woods-park,20687.998,31255.1367,Clementi Woods Park,,,Along West Coast Road next to West Coast Plaza,,,DB6AC9C66DF7E39E,2020/02/18,
,,,www.nparks.gov.sg/gardens-parks-and-nature/parks-and-nature-reserves/tiong-bahru-park,26965.9258,30003.668,Tiong Bahru Park,,,Along Tiong Bahru Road and Lower Delta Road,,,E7396C4A8BD86249,2020/02/18,
,,,,,,,,,,,,,,
,,,www.nparks.gov.sg/gardens-parks-and-nature/parks-and-nature-reserves/the-southern-ridges,24829.8965,29147.834,The Southern Ridges,,,Southern Singapore,,,5DEB8A91BCAA7962,2020/02/18,